PROBA-1                 
1 26958U 01049B   15081.15902878  .00001688  00000-0  15591-3 0  9996
2 26958  97.4664  71.9865 0074514 190.0086 169.9595 14.93797456729332
BIRD 2                  
1 26959U 01049C   15081.18532553  .00006085  00000-0  22753-3 0  9993
2 26959  97.7803 338.0425 0012433  35.4736 116.3090 15.27668041741117
CUTE-1 (CO-55)          
1 27844U 03031E   15080.66022604  .00000316  00000-0  16376-3 0  9998
2 27844  98.6978  90.4321 0009543 186.9787 289.0591 14.21741212608003
CUBESAT XI-IV (CO-57)   
1 27848U 03031J   15080.51992755  .00000275  00000-0  14596-3 0  9995
2 27848  98.7072  90.1552 0009329 194.7710 293.1778 14.21396539607898
GENESIS 1               
1 29252U 06029A   15080.52663442  .00001923  00000-0  11484-3 0  9999
2 29252  64.5063  74.4810 0051384 280.7030 217.3797 15.13457212477769
FALCONSAT-3             
1 30776U 07006E   15079.45113845  .00009588  00000-0  40762-3 0  9991
2 30776  35.4273 196.6197 0002278 209.1800 213.2018 15.22336965442769
GENESIS 2               
1 31789U 07028A   15080.15176718  .00003577  00000-0  21209-3 0  9994
2 31789  64.5057 110.7646 0028361 324.7428  35.1816 15.12769663424833
APRIZESAT 4             
1 35684U 09041D   15080.40312185  .00000781  00000-0  11281-3 0  9990
2 35684  98.0699   6.8506 0046967 214.3631 260.9118 14.78417360304124
APRIZESAT 3             
1 35686U 09041F   15080.84070543  .00001122  00000-0  12851-3 0  9993
2 35686  98.1871  39.4150 0075174 152.6910 207.8288 14.86125794305598
PROBA-2                 
1 36037U 09059B   15081.16690928  .00000215  00000-0  63246-4 0  9991
2 36037  98.2784 275.3886 0012773 339.3679 134.4867 14.52803908285354
APRIZESAT 5             
1 37792U 11044E   15081.15652987  .00001144  00000-0  17565-3 0  9993
2 37792  98.2381 194.3894 0060179 136.6036 344.7330 14.74435959193285
APRIZESAT 6             
1 37793U 11044F   15081.19851387  .00000952  00000-0  15887-3 0  9994
2 37793  98.2153 187.3074 0048357 150.2295 269.1284 14.71601068192930
TET-1                   
1 38710U 12039D   15080.34725413  .00010211  00000-0  31013-3 0  9993
2 38710  97.4791   4.0635 0000541  27.4792 332.6479 15.34271950148168
STSAT-2C                
1 39068U 13003A   15080.02236038  .00038997 -60775-6  61234-3 0  9998
2 39068  80.2496  41.2967 0603022 121.0440 245.1400 14.53666561110776
CUSAT 1                 
1 39266U 13055B   15080.19593646  .00013286  00000-0  40535-3 0  9997
2 39266  80.9914 134.8045 0723139  82.7225 285.5501 14.14606331 75507
STPSAT-3                
1 39380U 13064A   15079.96323412  .00007366  00000-0  27833-3 0  9997
2 39380  40.5049 293.0747 0003928 299.3586  60.6833 15.27111042 74138
APRIZESAT 7             
1 39416U 13066A   15081.18941989  .00000879  00000-0  11282-3 0  9994
2 39416  97.7439 150.2898 0043062  57.2621 303.2732 14.83041298 71968
APRIZESAT 8             
1 39425U 13066K   15081.15632630  .00000807  00000-0  10988-3 0  9994
2 39425  97.7409 148.2215 0053863  59.3270 301.3236 14.80381917 71856
BUGSAT-1 (TITA)         
1 40014U 14033E   15081.13541116  .00002755  00000-0  26827-3 0  9994
2 40014  97.9732 344.3587 0033814 152.7411 207.5611 14.92954790 41054
SAUDISAT 4              
1 40016U 14033G   15079.26768035 -.00000061  00000-0 -11716-5 0  9991
2 40016  97.9582 334.4244 0049942  47.3107 313.2278 14.74672008 40309
TABLETSAT-AURORA        
1 40017U 14033H   15081.13344352  .00003125  00000-0  32134-3 0  9990
2 40017  97.9715 343.3395 0025158 146.0729 214.2102 14.90855884 40998
APRIZESAT 9             
1 40018U 14033J   15080.92481203  .00000708  00000-0  12326-3 0  9999
2 40018  97.9514 333.6689 0073100  43.3826 317.3114 14.69403411 40305
APRIZESAT 10            
1 40019U 14033K   15081.18982944  .00000666  00000-0  12249-3 0  9994
2 40019  97.9476 332.6343 0085971  44.3639 316.4421 14.66513115 40313
AISAT                   
1 40054U 14034B   15081.20496183  .00004181  00000-0  63030-3 0  9992
2 40054  98.2223 157.5662 0014135 140.5185 219.7078 14.74856324 39034
CANX-4                  
1 40055U 14034C   15081.17557504  .00001258  00000-0  19954-3 0  9992
2 40055  98.2240 157.5503 0015299 146.8326 213.3873 14.73924407 39025
CANX-5                  
1 40056U 14034D   15081.17569384  .00001271  00000-0  20138-3 0  9993
2 40056  98.2234 157.5477 0015439 146.9810 213.2386 14.73923699 39024
TDS 1                   
1 40076U 14037H   15081.13871304  .00000879  00000-0  12138-3 0  9996
2 40076  98.3585 149.0551 0006055 169.7151 190.4215 14.80800878 37936
TIANTUO 2               
1 40144U 14053B   15081.14587888  .00006403  00000-0  22789-3 0  9994
2 40144  97.3901 158.4455 0011572 308.0994 139.0871 15.29247759 29770
